CTC2_L_00018016-03
1 32203U 24627MM  26037.47790509  .00000000  00000+0  00000-0 0  9999
2 32203 100.0000 180.0000 0000000   0.0000   0.0000 15.80155563    12
CTC2_L_00018016-04
1 32204U 26860MW  26037.47790509  .00000000  00000+0  00000-0 0  9991
2 32204 100.0000 180.0000 0000000   0.0000  90.0000 15.80155563    12
CTC2_L_00018017-01
1 32205U 25769JF  26037.47790509  .00000000  00000+0  00000-0 0  9999
2 32205 100.0000 192.0000 0000000   0.0000 192.0000 15.80155563    19
CTC2_L_00018017-02
1 32206U 26874WA  26037.47790509  .00000000  00000+0  00000-0 0  9998
2 32206 100.0000 192.0000 0000000   0.0000 282.0000 15.80155563    10
CTC2_L_00018017-03
1 32207U 26113VX  26037.47790509  .00000000  00000+0  00000-0 0  9995
2 32207 100.0000 192.0000 0000000   0.0000  12.0000 15.80155563    12
CTC2_L_00018017-04
1 32208U 24923KH  26037.47790509  .00000000  00000+0  00000-0 0  9993
2 32208 100.0000 192.0000 0000000   0.0000 102.0000 15.80155563    13
CTC2_L_00018018-01
1 32209U 26435UF  26037.47790509  .00000000  00000+0  00000-0 0  9994
2 32209 100.0000 204.0000 0000000   0.0000 204.0000 15.80155563    11
CTC2_L_00018018-02
1 32210U 22136PS  26037.47790509  .00000000  00000+0  00000-0 0  9990
2 32210 100.0000 204.0000 0000000   0.0000 294.0000 15.80155563    12
CTC2_L_00018018-03
1 32211U 25651LL  26037.47790509  .00000000  00000+0  00000-0 0  9996
2 32211 100.0000 204.0000 0000000   0.0000  24.0000 15.80155563    14
CTC2_L_00018018-04
1 32212U 23432XZ  26037.47790509  .00000000  00000+0  00000-0 0  9992
2 32212 100.0000 204.0000 0000000   0.0000 114.0000 15.80155563    15
CTC2_L_00018019-01
1 32213U 22273SK  26037.47790509  .00000000  00000+0  00000-0 0  9995
2 32213 100.0000 216.0000 0000000   0.0000 216.0000 15.80155563    12
CTC2_L_00018019-02
1 32214U 26874Y   26037.47790509  .00000000  00000+0  00000-0 0  9997
2 32214 100.0000 216.0000 0000000   0.0000 306.0000 15.80155563    13
CTC2_L_00018019-03
1 32215U 22239FP  26037.47790509  .00000000  00000+0  00000-0 0  9999
2 32215 100.0000 216.0000 0000000   0.0000  36.0000 15.80155563    14
CTC2_L_00018019-04
1 32216U 22373HS  26037.47790509  .00000000  00000+0  00000-0 0  9999
2 32216 100.0000 216.0000 0000000   0.0000 126.0000 15.80155563    15
CTC2_L_00018020-01
1 32217U 22783LL  26037.47790509  .00000000  00000+0  00000-0 0  9995
2 32217 100.0000 228.0000 0000000   0.0000 228.0000 15.80155563    12
CTC2_L_00018020-02
1 32218U 25764DQ  26037.47790509  .00000000  00000+0  00000-0 0  9998
2 32218 100.0000 228.0000 0000000   0.0000 318.0000 15.80155563    13
CTC2_L_00018020-03
1 32219U 25748UW  26037.47790509  .00000000  00000+0  00000-0 0  9991
2 32219 100.0000 228.0000 0000000   0.0000  48.0000 15.80155563    14
CTC2_L_00018020-04
1 32220U 26767FM  26037.47790509  .00000000  00000+0  00000-0 0  9995
2 32220 100.0000 228.0000 0000000   0.0000 138.0000 15.80155563    16
CTC2_L_00018021-01
1 32221U 26734WX  26037.47790509  .00000000  00000+0  00000-0 0  9990
2 32221 100.0000 240.0000 0000000   0.0000 240.0000 15.80155563    15
CTC2_L_00018021-02
1 32222U 24790LZ  26037.47790509  .00000000  00000+0  00000-0 0  9991
2 32222 100.0000 240.0000 0000000   0.0000 330.0000 15.80155563    16
CTC2_L_00018021-03
1 32223U 24466HD  26037.47790509  .00000000  00000+0  00000-0 0  9992
2 32223 100.0000 240.0000 0000000   0.0000  60.0000 15.80155563    17
CTC2_L_00018021-04
1 32224U 25538GU  26037.47790509  .00000000  00000+0  00000-0 0  9994
2 32224 100.0000 240.0000 0000000   0.0000 150.0000 15.80155563    18
CTC2_L_00018022-01
1 32225U 24899VS  26037.47790509  .00000000  00000+0  00000-0 0  9994
2 32225 100.0000 252.0000 0000000   0.0000 252.0000 15.80155563    15
CTC2_L_00018022-02
1 32226U 23071CL  26037.47790509  .00000000  00000+0  00000-0 0  9996
2 32226 100.0000 252.0000 0000000   0.0000 342.0000 15.80155563    16
CTC2_L_00018022-03
1 32227U 23563IH  26037.47790509  .00000000  00000+0  00000-0 0  9993
2 32227 100.0000 252.0000 0000000   0.0000  72.0000 15.80155563    17
CTC2_L_00018022-04
1 32228U 25564GI  26037.47790509  .00000000  00000+0  00000-0 0  9997
2 32228 100.0000 252.0000 0000000   0.0000 162.0000 15.80155563    18
CTC2_L_00018023-01
1 32229U 25735FK  26037.47790509  .00000000  00000+0  00000-0 0  9998
2 32229 100.0000 264.0000 0000000   0.0000 264.0000 15.80155563    15
CTC2_L_00018023-02
1 32230U 25947VZ  26037.47790509  .00000000  00000+0  00000-0 0  9995
2 32230 100.0000 264.0000 0000000   0.0000 354.0000 15.80155563    17
CTC2_L_00018023-03
1 32231U 26714BI  26037.47790509  .00000000  00000+0  00000-0 0  9999
2 32231 100.0000 264.0000 0000000   0.0000  84.0000 15.80155563    18
CTC2_L_00018023-04
1 32232U 25329J   26037.47790509  .00000000  00000+0  00000-0 0  9991
2 32232 100.0000 264.0000 0000000   0.0000 174.0000 15.80155563    19
CTC2_L_00018024-01
1 32233U 26842BU  26037.47790509  .00000000  00000+0  00000-0 0  9993
2 32233 100.0000 276.0000 0000000   0.0000 276.0000 15.80155563    16
CTC2_L_00018024-02
1 32234U 23851NS  26037.47790509  .00000000  00000+0  00000-0 0  9991
2 32234 100.0000 276.0000 0000000   0.0000   6.0000 15.80155563    18
CTC2_L_00018024-03
1 32235U 22451VK  26037.47790509  .00000000  00000+0  00000-0 0  9997
2 32235 100.0000 276.0000 0000000   0.0000  96.0000 15.80155563    18
CTC2_L_00018024-04
1 32236U 25473XJ  26037.47790509  .00000000  00000+0  00000-0 0  9995
2 32236 100.0000 276.0000 0000000   0.0000 186.0000 15.80155563    19
CTC2_L_00018025-01
1 32237U 26358XA  26037.47790509  .00000000  00000+0  00000-0 0  9999
2 32237 100.0000 288.0000 0000000   0.0000 288.0000 15.80155563    16
CTC2_L_00018025-02
1 32238U 23838QB  26037.47790509  .00000000  00000+0  00000-0 0  9990
2 32238 100.0000 288.0000 0000000   0.0000  18.0000 15.80155563    18
CTC2_L_00018025-03
1 32239U 26782AA  26037.47790509  .00000000  00000+0  00000-0 0  9992
2 32239 100.0000 288.0000 0000000   0.0000 108.0000 15.80155563    19
CTC2_L_00018025-04
1 32240U 25693EJ  26037.47790509  .00000000  00000+0  00000-0 0  9994
2 32240 100.0000 288.0000 0000000   0.0000 198.0000 15.80155563    10
CTC2_L_00018026-01
1 32241U 24791LQ  26037.47790509  .00000000  00000+0  00000-0 0  9993
2 32241 100.0000 300.0000 0000000   0.0000 300.0000 15.80155563    11
CTC2_L_00018026-02
1 32242U 22170KP  26037.47790509  .00000000  00000+0  00000-0 0  9993
2 32242 100.0000 300.0000 0000000   0.0000  30.0000 15.80155563    12
CTC2_L_00018026-03
1 32243U 23764OY  26037.47790509  .00000000  00000+0  00000-0 0  9994
2 32243 100.0000 300.0000 0000000   0.0000 120.0000 15.80155563    13
CTC2_L_00018026-04
1 32244U 26673EP  26037.47790509  .00000000  00000+0  00000-0 0  9997
2 32244 100.0000 300.0000 0000000   0.0000 210.0000 15.80155563    14
CTC2_L_00018027-01
1 32245U 23213GA  26037.47790509  .00000000  00000+0  00000-0 0  9995
2 32245 100.0000 312.0000 0000000   0.0000 312.0000 15.80155563    11
CTC2_L_00018027-02
1 32246U 23626YE  26037.47790509  .00000000  00000+0  00000-0 0  9994
2 32246 100.0000 312.0000 0000000   0.0000  42.0000 15.80155563    12
CTC2_L_00018027-03
1 32247U 23645FY  26037.47790509  .00000000  00000+0  00000-0 0  9996
2 32247 100.0000 312.0000 0000000   0.0000 132.0000 15.80155563    13
CTC2_L_00018027-04
1 32248U 24103NY  26037.47790509  .00000000  00000+0  00000-0 0  9997
2 32248 100.0000 312.0000 0000000   0.0000 222.0000 15.80155563    14
CTC2_L_00018028-01
1 32249U 24845DL  26037.47790509  .00000000  00000+0  00000-0 0  9991
2 32249 100.0000 324.0000 0000000   0.0000 324.0000 15.80155563    11
CTC2_L_00018028-02
1 32250U 26239ZG  26037.47790509  .00000000  00000+0  00000-0 0  9992
2 32250 100.0000 324.0000 0000000   0.0000  54.0000 15.80155563    13
CTC2_L_00018028-03
1 32251U 22626MK  26037.47790509  .00000000  00000+0  00000-0 0  9999
2 32251 100.0000 324.0000 0000000   0.0000 144.0000 15.80155563    14
CTC2_L_00018028-04
1 32252U 23071AQ  26037.47790509  .00000000  00000+0  00000-0 0  9995
2 32252 100.0000 324.0000 0000000   0.0000 234.0000 15.80155563    15
CTC2_L_00018029-01
1 32253U 22756RE  26037.47790509  .00000000  00000+0  00000-0 0  9995
2 32253 100.0000 336.0000 0000000   0.0000 336.0000 15.80155563    12
CTC2_L_00018029-02
1 32254U 22665NA  26037.47790509  .00000000  00000+0  00000-0 0  9995
2 32254 100.0000 336.0000 0000000   0.0000  66.0000 15.80155563    13
CTC2_L_00018029-03
1 32255U 26754EU  26037.47790509  .00000000  00000+0  00000-0 0  9999
2 32255 100.0000 336.0000 0000000   0.0000 156.0000 15.80155563    14
CTC2_L_00018029-04
1 32256U 26313ZB  26037.47790509  .00000000  00000+0  00000-0 0  9991
2 32256 100.0000 336.0000 0000000   0.0000 246.0000 15.80155563    15
CTC2_L_00018030-01
1 32257U 23199KJ  26037.47790509  .00000000  00000+0  00000-0 0  9991
2 32257 100.0000 348.0000 0000000   0.0000 348.0000 15.80155563    12
CTC2_L_00018030-02
1 32258U 23708IQ  26037.47790509  .00000000  00000+0  00000-0 0  9998
2 32258 100.0000 348.0000 0000000   0.0000  78.0000 15.80155563    13
CTC2_L_00018030-03
1 32259U 26993QS  26037.47790509  .00000000  00000+0  00000-0 0  9998
2 32259 100.0000 348.0000 0000000   0.0000 168.0000 15.80155563    14
CTC2_L_00018030-04
1 32260U 22886GZ  26037.47790509  .00000000  00000+0  00000-0 0  9997
2 32260 100.0000 348.0000 0000000   0.0000 258.0000 15.80155563    16
